{"type": "FeatureCollection", "features": [ {"type": "Feature", "properties": {"norad_id": 39574, "name": "GPM-CORE", "group": "resource", "lat": -0.43752360848840693, "lon": -114.82084538399074, "alt_km": 433.22094861810365, "timestamp": "2025-12-02T23:34:15.170577+00:00", "meta": {"OBJECT_NAME": "GPM-CORE", "OBJECT_ID": "2014-009C", "EPOCH": "2025-12-02T11:08:45.525120", "MEAN_MOTION": 15.45133019, "ECCENTRICITY": 0.0010578, "INCLINATION": 64.9754, "RA_OF_ASC_NODE": 247.1178, "ARG_OF_PERICENTER": 268.5101, "MEAN_ANOMALY": 91.4828, "EPHEMERIS_TYPE": 0, "CLASSIFICATION_TYPE": "U", "NORAD_CAT_ID": 39574, "ELEMENT_SET_NO": 999, "REV_AT_EPOCH": 66742, "BSTAR": 0.00039235, "MEAN_MOTION_DOT": 0.0001852, "MEAN_MOTION_DDOT": 0}, "tle": {"line1": "1 39574U 14009C   25336.46441580  .00018520  00000+0  39235-3 0  9993", "line2": "2 39574  64.9754 247.1178 0010578 268.5101  91.4828 15.45133019667428"}}, "geometry": {"type": "Point", "coordinates": [-114.82084538399074, -0.43752360848840693]}}, {"type": "Feature", "properties": {"norad_id": 39634, "name": "SENTINEL-1A", "group": "resource", "lat": 16.10576939013529, "lon": -20.012995346390174, "alt_km": 696.1388725038241, "timestamp": "2025-12-02T23:34:15.170586+00:00", "meta": {"OBJECT_NAME": "SENTINEL-1A", "OBJECT_ID": "2014-016A", "EPOCH": "2025-12-02T13:37:20.085312", "MEAN_MOTION": 14.59200912, "ECCENTRICITY": 0.0001258, "INCLINATION": 98.1805, "RA_OF_ASC_NODE": 341.9591, "ARG_OF_PERICENTER": 88.9666, "MEAN_ANOMALY": 271.1678, "EPHEMERIS_TYPE": 0, "CLASSIFICATION_TYPE": "U", "NORAD_CAT_ID": 39634, "ELEMENT_SET_NO": 999, "REV_AT_EPOCH": 62134, "BSTAR": 7.4424e-05, "MEAN_MOTION_DOT": 3.05e-06, "MEAN_MOTION_DDOT": 0}, "tle": {"line1": "1 39634U 14016A   25336.56759358  .00000305  00000+0  74424-4 0  9996", "line2": "2 39634  98.1805 341.9591 0001258  88.9666 271.1678 14.59200912621340"}}, "geometry": {"type": "Point", "coordinates": [-20.012995346390174, 16.10576939013529]}}, {"type": "Feature", "properties": {"norad_id": 39731, "name": "KAZEOSAT 1", "group": "resource", "lat": -51.427272888202296, "lon": -141.49711631456532, "alt_km": 759.1757427647171, "timestamp": "2025-12-02T23:34:15.170596+00:00", "meta": {"OBJECT_NAME": "KAZEOSAT 1", "OBJECT_ID": "2014-024A", "EPOCH": "2025-12-02T12:30:22.353120", "MEAN_MOTION": 14.42052775, "ECCENTRICITY": 0.0001055, "INCLINATION": 98.3445, "RA_OF_ASC_NODE": 48.6573, "ARG_OF_PERICENTER": 98.7106, "MEAN_ANOMALY": 261.4203, "EPHEMERIS_TYPE": 0, "CLASSIFICATION_TYPE": "U", "NORAD_CAT_ID": 39731, "ELEMENT_SET_NO": 999, "REV_AT_EPOCH": 61021, "BSTAR": 0.00011852, "MEAN_MOTION_DOT": 3.46e-06, "MEAN_MOTION_DDOT": 0}, "tle": {"line1": "1 39731U 14024A   25336.52109205  .00000346  00000+0  11852-3 0  9999", "line2": "2 39731  98.3445  48.6573 0001055  98.7106 261.4203 14.42052775610218"}}, "geometry": {"type": "Point", "coordinates": [-141.49711631456532, -51.427272888202296]}}, {"type": "Feature", "properties": {"norad_id": 39766, "name": "ALOS-2", "group": "resource", "lat": -63.5287823745483, "lon": -124.2741329438965, "alt_km": 639.002557550567, "timestamp": "2025-12-02T23:34:15.170606+00:00", "meta": {"OBJECT_NAME": "ALOS-2", "OBJECT_ID": "2014-029A", "EPOCH": "2025-12-02T14:21:09.233856", "MEAN_MOTION": 14.79446424, "ECCENTRICITY": 0.000141, "INCLINATION": 97.9233, "RA_OF_ASC_NODE": 71.5886, "ARG_OF_PERICENTER": 108.1882, "MEAN_ANOMALY": 251.9483, "EPHEMERIS_TYPE": 0, "CLASSIFICATION_TYPE": "U", "NORAD_CAT_ID": 39766, "ELEMENT_SET_NO": 999, "REV_AT_EPOCH": 62251, "BSTAR": 0.00036824, "MEAN_MOTION_DOT": 2.698e-05, "MEAN_MOTION_DDOT": 0}, "tle": {"line1": "1 39766U 14029A   25336.59802354  .00002698  00000+0  36824-3 0  9992", "line2": "2 39766  97.9233  71.5886 0001410 108.1882 251.9483 14.79446424622518"}}, "geometry": {"type": "Point", "coordinates": [-124.2741329438965, -63.5287823745483]}}, {"type": "Feature", "properties": {"norad_id": 40010, "name": "KAZEOSAT 2", "group": "resource", "lat": -44.28437178729232, "lon": -170.76644424880422, "alt_km": 618.2866573984529, "timestamp": "2025-12-02T23:34:15.170617+00:00", "meta": {"OBJECT_NAME": "KAZEOSAT 2", "OBJECT_ID": "2014-033A", "EPOCH": "2025-12-02T12:27:11.169792", "MEAN_MOTION": 14.8514062, "ECCENTRICITY": 0.0007214, "INCLINATION": 97.5512, "RA_OF_ASC_NODE": 181.3607, "ARG_OF_PERICENTER": 245.1267, "MEAN_ANOMALY": 114.9199, "EPHEMERIS_TYPE": 0, "CLASSIFICATION_TYPE": "U", "NORAD_CAT_ID": 40010, "ELEMENT_SET_NO": 999, "REV_AT_EPOCH": 61976, "BSTAR": 0.00013152, "MEAN_MOTION_DOT": 1.076e-05, "MEAN_MOTION_DDOT": 0}, "tle": {"line1": "1 40010U 14033A   25336.51887928  .00001076  00000+0  13152-3 0  9991", "line2": "2 40010  97.5512 181.3607 0007214 245.1267 114.9199 14.85140620619767"}}, "geometry": {"type": "Point", "coordinates": [-170.76644424880422, -44.28437178729232]}}, {"type": "Feature", "properties": {"norad_id": 40011, "name": "HODOYOSHI-4", "group": "resource", "lat": -37.0615306773091, "lon": 172.08903227630108, "alt_km": 611.9324861693322, "timestamp": "2025-12-02T23:34:15.170627+00:00", "meta": {"OBJECT_NAME": "HODOYOSHI-4", "OBJECT_ID": "2014-033B", "EPOCH": "2025-12-02T12:26:14.534592", "MEAN_MOTION": 14.87419965, "ECCENTRICITY": 0.0022616, "INCLINATION": 97.5417, "RA_OF_ASC_NODE": 165.9058, "ARG_OF_PERICENTER": 235.7732, "MEAN_ANOMALY": 124.1342, "EPHEMERIS_TYPE": 0, "CLASSIFICATION_TYPE": "U", "NORAD_CAT_ID": 40011, "ELEMENT_SET_NO": 999, "REV_AT_EPOCH": 61956, "BSTAR": 0.00025647, "MEAN_MOTION_DOT": 2.279e-05, "MEAN_MOTION_DDOT": 0}, "tle": {"line1": "1 40011U 14033B   25336.51822378  .00002279  00000+0  25647-3 0  9998", "line2": "2 40011  97.5417 165.9058 0022616 235.7732 124.1342 14.87419965619569"}}, "geometry": {"type": "Point", "coordinates": [172.08903227630108, -37.0615306773091]}}, {"type": "Feature", "properties": {"norad_id": 40013, "name": "DEIMOS-2", "group": "resource", "lat": -71.31432106248099, "lon": -123.619702112835, "alt_km": 596.6768224119442, "timestamp": "2025-12-02T23:34:15.170637+00:00", "meta": {"OBJECT_NAME": "DEIMOS-2", "OBJECT_ID": "2014-033D", "EPOCH": "2025-12-02T12:38:12.015744", "MEAN_MOTION": 14.92896081, "ECCENTRICITY": 7.49e-05, "INCLINATION": 97.6073, "RA_OF_ASC_NODE": 212.663, "ARG_OF_PERICENTER": 82.5414, "MEAN_ANOMALY": 277.589, "EPHEMERIS_TYPE": 0, "CLASSIFICATION_TYPE": "U", "NORAD_CAT_ID": 40013, "ELEMENT_SET_NO": 999, "REV_AT_EPOCH": 60837, "BSTAR": 0.0003089, "MEAN_MOTION_DOT": 3.148e-05, "MEAN_MOTION_DDOT": 0}, "tle": {"line1": "1 40013U 14033D   25336.52652796  .00003148  00000+0  30890-3 0  9998", "line2": "2 40013  97.6073 212.6630 0000749  82.5414 277.5890 14.92896081608376"}}, "geometry": {"type": "Point", "coordinates": [-123.619702112835, -71.31432106248099]}}, {"type": "Feature", "properties": {"norad_id": 40015, "name": "HODOYOSHI-3", "group": "resource", "lat": -18.13336492047315, "lon": 145.7540482683929, "alt_km": 608.3643075269601, "timestamp": "2025-12-02T23:34:15.170647+00:00", "meta": {"OBJECT_NAME": "HODOYOSHI-3", "OBJECT_ID": "2014-033F", "EPOCH": "2025-12-02T10:42:48.571200", "MEAN_MOTION": 14.84747728, "ECCENTRICITY": 0.0031862, "INCLINATION": 97.6193, "RA_OF_ASC_NODE": 142.7293, "ARG_OF_PERICENTER": 283.1979, "MEAN_ANOMALY": 76.5682, "EPHEMERIS_TYPE": 0, "CLASSIFICATION_TYPE": "U", "NORAD_CAT_ID": 40015, "ELEMENT_SET_NO": 999, "REV_AT_EPOCH": 61842, "BSTAR": 0.00027645, "MEAN_MOTION_DOT": 2.312e-05, "MEAN_MOTION_DDOT": 0}, "tle": {"line1": "1 40015U 14033F   25336.44639550  .00002312  00000+0  27645-3 0  9990", "line2": "2 40015  97.6193 142.7293 0031862 283.1979  76.5682 14.84747728618421"}}, "geometry": {"type": "Point", "coordinates": [145.7540482683929, -18.13336492047315]}}, {"type": "Feature", "properties": {"norad_id": 40053, "name": "SPOT 7", "group": "resource", "lat": -7.740792783006555, "lon": -141.8261705925845, "alt_km": 694.8437588995384, "timestamp": "2025-12-02T23:34:15.170657+00:00", "meta": {"OBJECT_NAME": "SPOT 7", "OBJECT_ID": "2014-034A", "EPOCH": "2025-12-02T11:12:22.811616", "MEAN_MOTION": 14.60712239, "ECCENTRICITY": 0.0001515, "INCLINATION": 98.092, "RA_OF_ASC_NODE": 38.7786, "ARG_OF_PERICENTER": 97.6567, "MEAN_ANOMALY": 262.4805, "EPHEMERIS_TYPE": 0, "CLASSIFICATION_TYPE": "U", "NORAD_CAT_ID": 40053, "ELEMENT_SET_NO": 999, "REV_AT_EPOCH": 60841, "BSTAR": 0.00017906, "MEAN_MOTION_DOT": 8.27e-06, "MEAN_MOTION_DDOT": 0}, "tle": {"line1": "1 40053U 14034A   25336.46693069  .00000827  00000+0  17906-3 0  9998", "line2": "2 40053  98.0920  38.7786 0001515  97.6567 262.4805 14.60712239608414"}}, "geometry": {"type": "Point", "coordinates": [-141.8261705925845, -7.740792783006555]}}, {"type": "Feature", "properties": {"norad_id": 40072, "name": "SKYSAT-B", "group": "resource", "lat": -81.62954987207333, "lon": 8.013564437538989, "alt_km": 613.810119059498, "timestamp": "2025-12-02T23:34:15.170667+00:00", "meta": {"OBJECT_NAME": "SKYSAT-B", "OBJECT_ID": "2014-037D", "EPOCH": "2025-12-02T09:26:30.630048", "MEAN_MOTION": 14.87263185, "ECCENTRICITY": 0.0005305, "INCLINATION": 98.359, "RA_OF_ASC_NODE": 279.5545, "ARG_OF_PERICENTER": 182.3664, "MEAN_ANOMALY": 177.7526, "EPHEMERIS_TYPE": 0, "CLASSIFICATION_TYPE": "U", "NORAD_CAT_ID": 40072, "ELEMENT_SET_NO": 999, "REV_AT_EPOCH": 61670, "BSTAR": 0.00032268, "MEAN_MOTION_DOT": 2.849e-05, "MEAN_MOTION_DDOT": 0}, "tle": {"line1": "1 40072U 14037D   25336.39341007  .00002849  00000+0  32268-3 0  9990", "line2": "2 40072  98.3590 279.5545 0005305 182.3664 177.7526 14.87263185616709"}}, "geometry": {"type": "Point", "coordinates": [8.013564437538989, -81.62954987207333]}}]}